[{"OBJECT_NAME":"STARLINK-3764","OBJECT_ID":"2022-041V","EPOCH":"2026-03-09T12:34:55.006464","MEAN_MOTION":15.08835355,"ECCENTRICITY":0.0001432,"INCLINATION":53.2165,"RA_OF_ASC_NODE":109.8637,"ARG_OF_PERICENTER":101.2795,"MEAN_ANOMALY":258.8358,"EPHEMERIS_TYPE":0,"CLASSIFICATION_TYPE":"U","NORAD_CAT_ID":52280,"ELEMENT_SET_NO":999,"REV_AT_EPOCH":21434,"BSTAR":-3.1397e-5,"MEAN_MOTION_DOT":-7.88e-6,"MEAN_MOTION_DDOT":0},{"OBJECT_NAME":"PSLV DEB","OBJECT_ID":"2001-049CG","EPOCH":"2026-03-09T17:57:10.653408","MEAN_MOTION":15.10779615,"ECCENTRICITY":0.00259315,"INCLINATION":97.9011,"RA_OF_ASC_NODE":146.9612,"ARG_OF_PERICENTER":307.1678,"MEAN_ANOMALY":170.9563,"EPHEMERIS_TYPE":0,"CLASSIFICATION_TYPE":"U","NORAD_CAT_ID":27136,"ELEMENT_SET_NO":999,"REV_AT_EPOCH":32989,"BSTAR":0.00047952924,"MEAN_MOTION_DOT":7.956e-5,"MEAN_MOTION_DDOT":0}]
